[{"OBJECT_NAME":"JILIN-01 KUANFU 02B 4","OBJECT_ID":"2024-169D","EPOCH":"2026-03-09T23:04:43.463424","MEAN_MOTION":15.0922271,"ECCENTRICITY":0.00080501,"INCLINATION":97.5522,"RA_OF_ASC_NODE":159.355,"ARG_OF_PERICENTER":260.1533,"MEAN_ANOMALY":99.8787,"EPHEMERIS_TYPE":0,"CLASSIFICATION_TYPE":"U","NORAD_CAT_ID":61192,"ELEMENT_SET_NO":999,"REV_AT_EPOCH":8086,"BSTAR":0.00035789888,"MEAN_MOTION_DOT":5.634e-5,"MEAN_MOTION_DDOT":0},{"OBJECT_NAME":"STARLINK-34956","OBJECT_ID":"2025-175A","EPOCH":"2026-03-09T14:39:24.824736","MEAN_MOTION":15.05654373,"ECCENTRICITY":0.0002446,"INCLINATION":97.6021,"RA_OF_ASC_NODE":302.5036,"ARG_OF_PERICENTER":91.1529,"MEAN_ANOMALY":268.9978,"EPHEMERIS_TYPE":0,"CLASSIFICATION_TYPE":"U","NORAD_CAT_ID":65174,"ELEMENT_SET_NO":999,"REV_AT_EPOCH":3259,"BSTAR":2.3235e-5,"MEAN_MOTION_DOT":2.74e-6,"MEAN_MOTION_DDOT":0}]
